start=new Date('2022-11-28T00:00:00.000Z').valueOf();
sats=[{"DECAY_DATE":null,"SITE":"AFETR","MEAN_MOTION_DDOT":"0.0000000000000","SEMIMAJOR_AXIS":"6917.896","NORAD_CAT_ID":"52091","TLE_LINE1":"1 52091U 22029D   22331.53757826 -.00001448  00000-0 -72860-4 0  9992","FILE":"3671694","PERIOD":"95.438","EPOCH":"2022-11-27T12:54:06.761664","TIME_SYSTEM":"UTC","REV_AT_EPOCH":"3977","MEAN_ELEMENT_THEORY":"SGP4","APOAPSIS":"541.492","CENTER_NAME":"EARTH","OBJECT_TYPE":"PAYLOAD","COUNTRY_CODE":"US","GP_ID":"218963086","RA_OF_ASC_NODE":"67.8364","EPHEMERIS_TYPE":"0","CLASSIFICATION_TYPE":"U","OBJECT_ID":"2022-029D","ELEMENT_SET_NO":"999","MEAN_ANOMALY":"322.8002","OBJECT_NAME":"STARLINK-3713","REF_FRAME":"TEME","ARG_OF_PERICENTER":"37.3164","RCS_SIZE":"LARGE","BSTAR":"-0.00007286000000","MEAN_MOTION_DOT":"-0.00001448","TLE_LINE2":"2 52091  53.2202  67.8364 0002501  37.3164 322.8002 15.08834775 39770","LAUNCH_DATE":"2022-03-19","INCLINATION":"53.2202","ECCENTRICITY":"0.00025010","MEAN_MOTION":"15.08834775","PERIAPSIS":"538.031"},{"CENTER_NAME":"EARTH","OBJECT_TYPE":"PAYLOAD","TIME_SYSTEM":"UTC","EPOCH":"2022-11-27T19:10:21.065088","REV_AT_EPOCH":"3981","APOAPSIS":"541.100","MEAN_ELEMENT_THEORY":"SGP4","COUNTRY_CODE":"US","GP_ID":"218991451","RA_OF_ASC_NODE":"66.6641","NORAD_CAT_ID":"52092","TLE_LINE1":"1 52092U 22029E   22331.79885492 -.00003690  00000-0 -21390-3 0  9994","DECAY_DATE":null,"SITE":"AFETR","MEAN_MOTION_DDOT":"0.0000000000000","SEMIMAJOR_AXIS":"6917.909","PERIOD":"95.438","FILE":"3671921","LAUNCH_DATE":"2022-03-19","INCLINATION":"53.2177","ECCENTRICITY":"0.00019170","MEAN_MOTION":"15.08830638","BSTAR":"-0.00021390000000","TLE_LINE2":"2 52092  53.2177  66.6641 0001917  35.9920 324.1201 15.08830638 39816","MEAN_MOTION_DOT":"-0.00003690","PERIAPSIS":"538.448","MEAN_ANOMALY":"324.1201","CLASSIFICATION_TYPE":"U","EPHEMERIS_TYPE":"0","OBJECT_ID":"2022-029E","ELEMENT_SET_NO":"999","ARG_OF_PERICENTER":"35.9920","RCS_SIZE":"LARGE","OBJECT_NAME":"STARLINK-3716","REF_FRAME":"TEME"},{"OBJECT_ID":"2022-029F","EPHEMERIS_TYPE":"0","CLASSIFICATION_TYPE":"U","ELEMENT_SET_NO":"999","MEAN_ANOMALY":"311.2569","OBJECT_NAME":"STARLINK-3673","REF_FRAME":"TEME","RCS_SIZE":"LARGE","ARG_OF_PERICENTER":"48.8560","BSTAR":"-0.00002440900000","TLE_LINE2":"2 52093  53.2175  67.6102 0001586  48.8560 311.2569 15.08830416 39787","MEAN_MOTION_DOT":"-0.00000676","INCLINATION":"53.2175","LAUNCH_DATE":"2022-03-19","MEAN_MOTION":"15.08830416","ECCENTRICITY":"0.00015860","PERIAPSIS":"538.678","DECAY_DATE":null,"SITE":"AFETR","MEAN_MOTION_DDOT":"0.0000000000000","SEMIMAJOR_AXIS":"6917.910","NORAD_CAT_ID":"52093","TLE_LINE1":"1 52093U 22029F   22331.58910131 -.00000676  00000-0 -24409-4 0  9997","PERIOD":"95.438","FILE":"3671921","EPOCH":"2022-11-27T14:08:18.353184","TIME_SYSTEM":"UTC","APOAPSIS":"540.872","MEAN_ELEMENT_THEORY":"SGP4","REV_AT_EPOCH":"3978","OBJECT_TYPE":"PAYLOAD","CENTER_NAME":"EARTH","GP_ID":"218992701","COUNTRY_CODE":"US","RA_OF_ASC_NODE":"67.6102"},{"FILE":"3671921","PERIOD":"95.439","SITE":"AFETR","DECAY_DATE":null,"MEAN_MOTION_DDOT":"0.0000000000000","SEMIMAJOR_AXIS":"6917.927","NORAD_CAT_ID":"52094","TLE_LINE1":"1 52094U 22029G   22331.59278505 -.00001111  00000-0 -51702-4 0  9992","GP_ID":"218992951","COUNTRY_CODE":"US","RA_OF_ASC_NODE":"67.5957","TIME_SYSTEM":"UTC","EPOCH":"2022-11-27T14:13:36.628320","MEAN_ELEMENT_THEORY":"SGP4","APOAPSIS":"541.108","REV_AT_EPOCH":"3978","OBJECT_TYPE":"PAYLOAD","CENTER_NAME":"EARTH","OBJECT_NAME":"STARLINK-3714","REF_FRAME":"TEME","RCS_SIZE":"LARGE","ARG_OF_PERICENTER":"51.8839","OBJECT_ID":"2022-029G","EPHEMERIS_TYPE":"0","CLASSIFICATION_TYPE":"U","ELEMENT_SET_NO":"999","MEAN_ANOMALY":"308.2325","PERIAPSIS":"538.475","BSTAR":"-0.00005170200000","TLE_LINE2":"2 52094  53.2213  67.5957 0001903  51.8839 308.2325 15.08824838 39781","MEAN_MOTION_DOT":"-0.00001111","INCLINATION":"53.2213","LAUNCH_DATE":"2022-03-19","MEAN_MOTION":"15.08824838","ECCENTRICITY":"0.00019030"},{"PERIOD":"95.438","FILE":"3671921","SEMIMAJOR_AXIS":"6917.925","SITE":"AFETR","DECAY_DATE":null,"MEAN_MOTION_DDOT":"0.0000000000000","TLE_LINE1":"1 52095U 22029H   22331.64798730 -.00000691  00000-0 -25317-4 0  9991","NORAD_CAT_ID":"52095","RA_OF_ASC_NODE":"67.3445","GP_ID":"218991201","COUNTRY_CODE":"US","REV_AT_EPOCH":"3979","APOAPSIS":"541.118","MEAN_ELEMENT_THEORY":"SGP4","EPOCH":"2022-11-27T15:33:06.102720","TIME_SYSTEM":"UTC","CENTER_NAME":"EARTH","OBJECT_TYPE":"PAYLOAD","REF_FRAME":"TEME","OBJECT_NAME":"STARLINK-3701","ARG_OF_PERICENTER":"47.3340","RCS_SIZE":"LARGE","ELEMENT_SET_NO":"999","CLASSIFICATION_TYPE":"U","EPHEMERIS_TYPE":"0","OBJECT_ID":"2022-029H","MEAN_ANOMALY":"312.7814","PERIAPSIS":"538.463","TLE_LINE2":"2 52095  53.2178  67.3445 0001919  47.3340 312.7814 15.08825299 39792","MEAN_MOTION_DOT":"-0.00000691","BSTAR":"-0.00002531700000","ECCENTRICITY":"0.00019190","MEAN_MOTION":"15.08825299","LAUNCH_DATE":"2022-03-19","INCLINATION":"53.2178"},{"PERIAPSIS":"538.124","LAUNCH_DATE":"2022-03-19","INCLINATION":"53.2180","ECCENTRICITY":"0.00023530","MEAN_MOTION":"15.08838033","BSTAR":"-0.00001934600000","TLE_LINE2":"2 52096  53.2180  57.4299 0002353  31.0824 329.0306 15.08838033 39914","MEAN_MOTION_DOT":"-0.00000596","ARG_OF_PERICENTER":"31.0824","RCS_SIZE":"LARGE","OBJECT_NAME":"STARLINK-3717","REF_FRAME":"TEME","MEAN_ANOMALY":"329.0306","EPHEMERIS_TYPE":"0","CLASSIFICATION_TYPE":"U","OBJECT_ID":"2022-029J","ELEMENT_SET_NO":"999","COUNTRY_CODE":"US","GP_ID":"218991950","RA_OF_ASC_NODE":"57.4299","CENTER_NAME":"EARTH","OBJECT_TYPE":"PAYLOAD","TIME_SYSTEM":"UTC","EPOCH":"2022-11-27T15:02:36.847104","REV_AT_EPOCH":"3991","MEAN_ELEMENT_THEORY":"SGP4","APOAPSIS":"541.379","FILE":"3671921","PERIOD":"95.438","NORAD_CAT_ID":"52096","TLE_LINE1":"1 52096U 22029J   22331.62681536 -.00000596  00000-0 -19346-4 0  9994","DECAY_DATE":null,"SITE":"AFETR","MEAN_MOTION_DDOT":"0.0000000000000","SEMIMAJOR_AXIS":"6917.886"},{"PERIAPSIS":"538.516","MEAN_MOTION":"15.08841729","ECCENTRICITY":"0.00017700","INCLINATION":"53.2197","LAUNCH_DATE":"2022-03-19","MEAN_MOTION_DOT":"-0.00001198","TLE_LINE2":"2 52098  53.2197  67.3313 0001770  50.5279 309.5869 15.08841729 39792","BSTAR":"-0.00005717100000","RCS_SIZE":"LARGE","ARG_OF_PERICENTER":"50.5279","REF_FRAME":"TEME","OBJECT_NAME":"STARLINK-3665","MEAN_ANOMALY":"309.5869","ELEMENT_SET_NO":"999","OBJECT_ID":"2022-029L","CLASSIFICATION_TYPE":"U","EPHEMERIS_TYPE":"0","RA_OF_ASC_NODE":"67.3313","GP_ID":"218992202","COUNTRY_CODE":"US","OBJECT_TYPE":"PAYLOAD","CENTER_NAME":"EARTH","MEAN_ELEMENT_THEORY":"SGP4","APOAPSIS":"540.965","REV_AT_EPOCH":"3979","EPOCH":"2022-11-27T15:38:23.431776","TIME_SYSTEM":"UTC","PERIOD":"95.437","FILE":"3671921","TLE_LINE1":"1 52098U 22029L   22331.65166009 -.00001198  00000-0 -57171-4 0  9999","NORAD_CAT_ID":"52098","SEMIMAJOR_AXIS":"6917.875","DECAY_DATE":null,"SITE":"AFETR","MEAN_MOTION_DDOT":"0.0000000000000"},{"RA_OF_ASC_NODE":"67.9625","GP_ID":"218992452","COUNTRY_CODE":"US","OBJECT_TYPE":"PAYLOAD","CENTER_NAME":"EARTH","APOAPSIS":"540.935","MEAN_ELEMENT_THEORY":"SGP4","REV_AT_EPOCH":"3977","EPOCH":"2022-11-27T12:17:01.039776","TIME_SYSTEM":"UTC","FILE":"3671921","PERIOD":"95.438","TLE_LINE1":"1 52100U 22029N   22331.51181759 -.00000120  00000-0  10543-4 0  9992","NORAD_CAT_ID":"52100","SEMIMAJOR_AXIS":"6917.907","SITE":"AFETR","DECAY_DATE":null,"MEAN_MOTION_DDOT":"0.0000000000000","PERIAPSIS":"538.608","MEAN_MOTION":"15.08831407","ECCENTRICITY":"0.00016820","INCLINATION":"53.2182","LAUNCH_DATE":"2022-03-19","TLE_LINE2":"2 52100  53.2182  67.9625 0001682  45.4876 314.6254 15.08831407 39775","MEAN_MOTION_DOT":"-0.00000120","BSTAR":"0.00001054300000","RCS_SIZE":"LARGE","ARG_OF_PERICENTER":"45.4876","REF_FRAME":"TEME","OBJECT_NAME":"STARLINK-3702","MEAN_ANOMALY":"314.6254","ELEMENT_SET_NO":"999","OBJECT_ID":"2022-029N","CLASSIFICATION_TYPE":"U","EPHEMERIS_TYPE":"0"},{"INCLINATION":"53.2188","LAUNCH_DATE":"2022-03-19","MEAN_MOTION":"15.08826362","ECCENTRICITY":"0.00016310","BSTAR":"-0.00005292600000","TLE_LINE2":"2 52101  53.2188  67.6941 0001631  51.3737 308.7401 15.08826362 39778","MEAN_MOTION_DOT":"-0.00001130","PERIAPSIS":"538.659","MEAN_ANOMALY":"308.7401","OBJECT_ID":"2022-029P","CLASSIFICATION_TYPE":"U","EPHEMERIS_TYPE":"0","ELEMENT_SET_NO":"999","RCS_SIZE":"LARGE","ARG_OF_PERICENTER":"51.3737","OBJECT_NAME":"STARLINK-3703","REF_FRAME":"TEME","OBJECT_TYPE":"PAYLOAD","CENTER_NAME":"EARTH","TIME_SYSTEM":"UTC","EPOCH":"2022-11-27T13:41:48.788448","APOAPSIS":"540.915","MEAN_ELEMENT_THEORY":"SGP4","REV_AT_EPOCH":"3977","GP_ID":"218991700","COUNTRY_CODE":"US","RA_OF_ASC_NODE":"67.6941","NORAD_CAT_ID":"52101","TLE_LINE1":"1 52101U 22029P   22331.57070357 -.00001130  00000-0 -52926-4 0  9994","DECAY_DATE":null,"MEAN_MOTION_DDOT":"0.0000000000000","SITE":"AFETR","SEMIMAJOR_AXIS":"6917.922","FILE":"3671921","PERIOD":"95.438"},{"ELEMENT_SET_NO":"999","CLASSIFICATION_TYPE":"U","EPHEMERIS_TYPE":"0","OBJECT_ID":"2022-029Q","MEAN_ANOMALY":"321.8352","REF_FRAME":"TEME","OBJECT_NAME":"STARLINK-3709","ARG_OF_PERICENTER":"38.2773","RCS_SIZE":"LARGE","TLE_LINE2":"2 52102  53.2201  57.3500 0001873  38.2773 321.8352 15.08837225 39922","MEAN_MOTION_DOT":"-0.00001727","BSTAR":"-0.00009044000000","ECCENTRICITY":"0.00018730","MEAN_MOTION":"15.08837225","LAUNCH_DATE":"2022-03-19","INCLINATION":"53.2201","PERIAPSIS":"538.458","SEMIMAJOR_AXIS":"6917.889","DECAY_DATE":null,"MEAN_MOTION_DDOT":"0.0000000000000","SITE":"AFETR","TLE_LINE1":"1 52102U 22029Q   22331.64617376 -.00001727  00000-0 -90440-4 0  9996","NORAD_CAT_ID":"52102","FILE":"3671921","PERIOD":"95.438","REV_AT_EPOCH":"3992","MEAN_ELEMENT_THEORY":"SGP4","APOAPSIS":"541.050","EPOCH":"2022-11-27T15:30:29.412864","TIME_SYSTEM":"UTC","CENTER_NAME":"EARTH","OBJECT_TYPE":"PAYLOAD","RA_OF_ASC_NODE":"57.3500","COUNTRY_CODE":"US","GP_ID":"218991452"}];
